{"id":"399","name":"Earth ","centerId":"500@10","centerName":"Sun ","epoch":"2000-Jan-01 12:00:00.0000","elementTable":{"periapsis":147102954684.3549,"inclination":0.0000072973718151563756,"longitudeOfAscendingNode":2.357603289547775,"argumentOfPeriapsis":5.702483178230002,"timeOfPeriapsis":2451546.403877782,"meanMotion":1.9896469977064175e-7,"meanAnomaly":6.259051875884865,"trueAnomaly":6.2582076498563675,"apoapsis":152227074421.3704,"siderealOrbitPeriod":31579397.32235206,"semiMajorAxis":149665014552.8626,"semiMinorAxis":149643083469.764,"semiLatusRectum":149621155600.32498,"eccentricity":0.01711862906746885,"linearEccentricity":2562059868.507404},"physicalDataTable":{"meanRadius":6371010,"mass":5.97219e+24,"siderealRotationRate":0.00007292115,"siderealRotationPeriod":86164.10063718943,"gravParameter":398600435.436,"obliquity":23.4392911},"vectorTable":{"position":[147057841560.7374,0,3673924438.4236426],"velocity":[743.816726749354,0,-30282.92334622804]}}
